STARLINK-36191          
1 67023U 25293W   26002.83335648 -.00093467  00000+0 -15313-2 0  9994
2 67023  69.9999 263.6728 0003404 266.4375 108.6401 15.52575983  3495
STARLINK-36192          
1 67024U 25293X   26002.58336806  .00025491  00000+0  41607-3 0  9990
2 67024  69.9999 264.3557 0003448 265.8107 154.4283 15.52496512  3563
STARLINK-36178          
1 67025U 25293Y   26002.83335648 -.00187562  00000+0 -31066-2 0  9999
2 67025  69.9999 263.6677 0003166 267.6130 111.2856 15.52624739  3608
STARLINK-36176          
1 67026U 25293Z   26002.83335648 -.00079447  00000+0 -12991-2 0  9998
2 67026  69.9997 263.6639 0003560 272.4250 110.3175 15.52571087  3601
STARLINK-36171          
1 67027U 25293AA  26002.83335648 -.00163222  00000+0 -26949-2 0  9992
2 67027  70.0001 263.6656 0003501 267.8981 112.9139 15.52623363  3607
STARLINK-36132          
1 67028U 25293AB  26002.83335648 -.00200221  00000+0 -33208-2 0  9990
2 67028  69.9997 263.6583 0003533 269.8100 116.7574 15.52629990  3605
STARLINK-36190          
1 67029U 25293AC  26002.83335648 -.00116990  00000+0 -19220-2 0  9998
2 67029  69.9999 263.6612 0003179 266.8100 117.8448 15.52591540  3605
STARLINK-36138          
1 67030U 25294A   26002.83335648 -.00007079  00000+0 -12799-3 0  9993
2 67030  43.0140  55.0738 0001487 278.9048 264.6022 15.47580345  3485
STARLINK-36150          
1 67031U 25294B   26002.83335648 -.00495257  00000+0 -12511-1 0  9993
2 67031  43.0008  55.1454 0001706 289.5987 224.9877 15.40995688  3681
STARLINK-36131          
1 67032U 25294C   26002.83335648  .00034706  00000+0  83551-3 0  9994
2 67032  43.0008  55.2356 0001325 279.3660 198.0408 15.40656492  3482
STARLINK-36137          
1 67033U 25294D   26002.83335648 -.00124556  00000+0 -30184-2 0  9993
2 67033  43.0007  55.2055 0001200 273.2588 216.5683 15.40749745  3487
STARLINK-36140          
1 67034U 25294E   26002.58336806 -.01756353  00000+0 -42660-1 0  9991
2 67034  43.0005  56.5653 0001317 286.1327 289.9550 15.43269089  3441
