CCSDS_OMM_VERS = 2.0
CREATION_DATE  = 
ORIGINATOR     = 

OBJECT_NAME    = STARLINK-36191
OBJECT_ID      = 2025-293W
CENTER_NAME    = EARTH
REF_FRAME      = TEME
TIME_SYSTEM    = UTC
MEAN_ELEMENT_THEORY = SGP/SGP4

EPOCH          = 2026-01-02T20:00:01.999872
MEAN_MOTION    = 15.52575983
ECCENTRICITY   = .0003404
INCLINATION    = 69.9999
RA_OF_ASC_NODE = 263.6728
ARG_OF_PERICENTER = 266.4375
MEAN_ANOMALY   = 108.6401

EPHEMERIS_TYPE = 0
CLASSIFICATION_TYPE = U
NORAD_CAT_ID   = 67023
ELEMENT_SET_NO = 999
REV_AT_EPOCH   = 349
BSTAR          = -.15313E-2
MEAN_MOTION_DOT = -.93467E-3
MEAN_MOTION_DDOT = 0

CCSDS_OMM_VERS = 2.0
CREATION_DATE  = 
ORIGINATOR     = 

OBJECT_NAME    = STARLINK-36192
OBJECT_ID      = 2025-293X
CENTER_NAME    = EARTH
REF_FRAME      = TEME
TIME_SYSTEM    = UTC
MEAN_ELEMENT_THEORY = SGP/SGP4

EPOCH          = 2026-01-02T14:00:03.000384
MEAN_MOTION    = 15.52496512
ECCENTRICITY   = .00034488
INCLINATION    = 69.9999
RA_OF_ASC_NODE = 264.3557
ARG_OF_PERICENTER = 265.8107
MEAN_ANOMALY   = 154.4283

EPHEMERIS_TYPE = 0
CLASSIFICATION_TYPE = U
NORAD_CAT_ID   = 67024
ELEMENT_SET_NO = 999
REV_AT_EPOCH   = 356
BSTAR          = .41606809E-3
MEAN_MOTION_DOT = .25491E-3
MEAN_MOTION_DDOT = 0

CCSDS_OMM_VERS = 2.0
CREATION_DATE  = 
ORIGINATOR     = 

OBJECT_NAME    = STARLINK-36178
OBJECT_ID      = 2025-293Y
CENTER_NAME    = EARTH
REF_FRAME      = TEME
TIME_SYSTEM    = UTC
MEAN_ELEMENT_THEORY = SGP/SGP4

EPOCH          = 2026-01-02T20:00:01.999872
MEAN_MOTION    = 15.52624739
ECCENTRICITY   = .0003166
INCLINATION    = 69.9999
RA_OF_ASC_NODE = 263.6677
ARG_OF_PERICENTER = 267.6130
MEAN_ANOMALY   = 111.2856

EPHEMERIS_TYPE = 0
CLASSIFICATION_TYPE = U
NORAD_CAT_ID   = 67025
ELEMENT_SET_NO = 999
REV_AT_EPOCH   = 360
BSTAR          = -.31066E-2
MEAN_MOTION_DOT = -.187562E-2
MEAN_MOTION_DDOT = 0

CCSDS_OMM_VERS = 2.0
CREATION_DATE  = 
ORIGINATOR     = 

OBJECT_NAME    = STARLINK-36176
OBJECT_ID      = 2025-293Z
CENTER_NAME    = EARTH
REF_FRAME      = TEME
TIME_SYSTEM    = UTC
MEAN_ELEMENT_THEORY = SGP/SGP4

EPOCH          = 2026-01-02T20:00:01.999872
MEAN_MOTION    = 15.52571087
ECCENTRICITY   = .000356
INCLINATION    = 69.9997
RA_OF_ASC_NODE = 263.6639
ARG_OF_PERICENTER = 272.4250
MEAN_ANOMALY   = 110.3175

EPHEMERIS_TYPE = 0
CLASSIFICATION_TYPE = U
NORAD_CAT_ID   = 67026
ELEMENT_SET_NO = 999
REV_AT_EPOCH   = 360
BSTAR          = -.12991E-2
MEAN_MOTION_DOT = -.79447E-3
MEAN_MOTION_DDOT = 0

CCSDS_OMM_VERS = 2.0
CREATION_DATE  = 
ORIGINATOR     = 

OBJECT_NAME    = STARLINK-36171
OBJECT_ID      = 2025-293AA
CENTER_NAME    = EARTH
REF_FRAME      = TEME
TIME_SYSTEM    = UTC
MEAN_ELEMENT_THEORY = SGP/SGP4

EPOCH          = 2026-01-02T20:00:01.999872
MEAN_MOTION    = 15.52623363
ECCENTRICITY   = .0003501
INCLINATION    = 70.0001
RA_OF_ASC_NODE = 263.6656
ARG_OF_PERICENTER = 267.8981
MEAN_ANOMALY   = 112.9139

EPHEMERIS_TYPE = 0
CLASSIFICATION_TYPE = U
NORAD_CAT_ID   = 67027
ELEMENT_SET_NO = 999
REV_AT_EPOCH   = 360
BSTAR          = -.26949E-2
MEAN_MOTION_DOT = -.163222E-2
MEAN_MOTION_DDOT = 0

CCSDS_OMM_VERS = 2.0
CREATION_DATE  = 
ORIGINATOR     = 

OBJECT_NAME    = STARLINK-36132
OBJECT_ID      = 2025-293AB
CENTER_NAME    = EARTH
REF_FRAME      = TEME
TIME_SYSTEM    = UTC
MEAN_ELEMENT_THEORY = SGP/SGP4

EPOCH          = 2026-01-02T20:00:01.999872
MEAN_MOTION    = 15.52629990
ECCENTRICITY   = .0003533
INCLINATION    = 69.9997
RA_OF_ASC_NODE = 263.6583
ARG_OF_PERICENTER = 269.8100
MEAN_ANOMALY   = 116.7574

EPHEMERIS_TYPE = 0
CLASSIFICATION_TYPE = U
NORAD_CAT_ID   = 67028
ELEMENT_SET_NO = 999
REV_AT_EPOCH   = 360
BSTAR          = -.33208E-2
MEAN_MOTION_DOT = -.200221E-2
MEAN_MOTION_DDOT = 0

CCSDS_OMM_VERS = 2.0
CREATION_DATE  = 
ORIGINATOR     = 

OBJECT_NAME    = STARLINK-36190
OBJECT_ID      = 2025-293AC
CENTER_NAME    = EARTH
REF_FRAME      = TEME
TIME_SYSTEM    = UTC
MEAN_ELEMENT_THEORY = SGP/SGP4

EPOCH          = 2026-01-02T20:00:01.999872
MEAN_MOTION    = 15.52591540
ECCENTRICITY   = .0003179
INCLINATION    = 69.9999
RA_OF_ASC_NODE = 263.6612
ARG_OF_PERICENTER = 266.8100
MEAN_ANOMALY   = 117.8448

EPHEMERIS_TYPE = 0
CLASSIFICATION_TYPE = U
NORAD_CAT_ID   = 67029
ELEMENT_SET_NO = 999
REV_AT_EPOCH   = 360
BSTAR          = -.1922E-2
MEAN_MOTION_DOT = -.11699E-2
MEAN_MOTION_DDOT = 0

CCSDS_OMM_VERS = 2.0
CREATION_DATE  = 
ORIGINATOR     = 

OBJECT_NAME    = STARLINK-36138
OBJECT_ID      = 2025-294A
CENTER_NAME    = EARTH
REF_FRAME      = TEME
TIME_SYSTEM    = UTC
MEAN_ELEMENT_THEORY = SGP/SGP4

EPOCH          = 2026-01-02T20:00:01.999872
MEAN_MOTION    = 15.47580345
ECCENTRICITY   = .0001487
INCLINATION    = 43.0140
RA_OF_ASC_NODE = 55.0738
ARG_OF_PERICENTER = 278.9048
MEAN_ANOMALY   = 264.6022

EPHEMERIS_TYPE = 0
CLASSIFICATION_TYPE = U
NORAD_CAT_ID   = 67030
ELEMENT_SET_NO = 999
REV_AT_EPOCH   = 348
BSTAR          = -.12799E-3
MEAN_MOTION_DOT = -.7079E-4
MEAN_MOTION_DDOT = 0

CCSDS_OMM_VERS = 2.0
CREATION_DATE  = 
ORIGINATOR     = 

OBJECT_NAME    = STARLINK-36150
OBJECT_ID      = 2025-294B
CENTER_NAME    = EARTH
REF_FRAME      = TEME
TIME_SYSTEM    = UTC
MEAN_ELEMENT_THEORY = SGP/SGP4

EPOCH          = 2026-01-02T20:00:01.999872
MEAN_MOTION    = 15.40995688
ECCENTRICITY   = .0001706
INCLINATION    = 43.0008
RA_OF_ASC_NODE = 55.1454
ARG_OF_PERICENTER = 289.5987
MEAN_ANOMALY   = 224.9877

EPHEMERIS_TYPE = 0
CLASSIFICATION_TYPE = U
NORAD_CAT_ID   = 67031
ELEMENT_SET_NO = 999
REV_AT_EPOCH   = 368
BSTAR          = -.12511E-1
MEAN_MOTION_DOT = -.495257E-2
MEAN_MOTION_DDOT = 0

CCSDS_OMM_VERS = 2.0
CREATION_DATE  = 
ORIGINATOR     = 

OBJECT_NAME    = STARLINK-36131
OBJECT_ID      = 2025-294C
CENTER_NAME    = EARTH
REF_FRAME      = TEME
TIME_SYSTEM    = UTC
MEAN_ELEMENT_THEORY = SGP/SGP4

EPOCH          = 2026-01-02T20:00:01.999872
MEAN_MOTION    = 15.40656492
ECCENTRICITY   = .0001325
INCLINATION    = 43.0008
RA_OF_ASC_NODE = 55.2356
ARG_OF_PERICENTER = 279.3660
MEAN_ANOMALY   = 198.0408

EPHEMERIS_TYPE = 0
CLASSIFICATION_TYPE = U
NORAD_CAT_ID   = 67032
ELEMENT_SET_NO = 999
REV_AT_EPOCH   = 348
BSTAR          = .83551E-3
MEAN_MOTION_DOT = .34706E-3
MEAN_MOTION_DDOT = 0

CCSDS_OMM_VERS = 2.0
CREATION_DATE  = 
ORIGINATOR     = 

OBJECT_NAME    = STARLINK-36137
OBJECT_ID      = 2025-294D
CENTER_NAME    = EARTH
REF_FRAME      = TEME
TIME_SYSTEM    = UTC
MEAN_ELEMENT_THEORY = SGP/SGP4

EPOCH          = 2026-01-02T20:00:01.999872
MEAN_MOTION    = 15.40749745
ECCENTRICITY   = .00012
INCLINATION    = 43.0007
RA_OF_ASC_NODE = 55.2055
ARG_OF_PERICENTER = 273.2588
MEAN_ANOMALY   = 216.5683

EPHEMERIS_TYPE = 0
CLASSIFICATION_TYPE = U
NORAD_CAT_ID   = 67033
ELEMENT_SET_NO = 999
REV_AT_EPOCH   = 348
BSTAR          = -.30184E-2
MEAN_MOTION_DOT = -.124556E-2
MEAN_MOTION_DDOT = 0

CCSDS_OMM_VERS = 2.0
CREATION_DATE  = 
ORIGINATOR     = 

OBJECT_NAME    = STARLINK-36140
OBJECT_ID      = 2025-294E
CENTER_NAME    = EARTH
REF_FRAME      = TEME
TIME_SYSTEM    = UTC
MEAN_ELEMENT_THEORY = SGP/SGP4

EPOCH          = 2026-01-02T14:00:03.000384
MEAN_MOTION    = 15.43269089
ECCENTRICITY   = .00013173
INCLINATION    = 43.0005
RA_OF_ASC_NODE = 56.5653
ARG_OF_PERICENTER = 286.1327
MEAN_ANOMALY   = 289.9550

EPHEMERIS_TYPE = 0
CLASSIFICATION_TYPE = U
NORAD_CAT_ID   = 67034
ELEMENT_SET_NO = 999
REV_AT_EPOCH   = 344
BSTAR          = -.42659632E-1
MEAN_MOTION_DOT = -.1756353E-1
MEAN_MOTION_DDOT = 0

